SHIJIAN-30A             
1 66545U 25266A   25328.75328676  .00011797  00000+0  62587-3 0  9996
2 66545  51.7993  57.1043 0012865 292.5419  67.4196 15.15687563   859
SHIJIAN-30B             
1 66546U 25266B   25328.75417931  .00013903  00000+0  73971-3 0  9990
2 66546  51.7975  57.1096 0010542 291.8942  68.0913 15.15456604   855
SHIJIAN-30C             
1 66547U 25266C   25328.75507633  .00009589  00000+0  51925-3 0  9990
2 66547  51.7986  57.1154 0011275 284.9332  75.0396 15.15196419   851
CZ-2C R/B               
1 66548U 25266D   25328.63778816  .00013433  00000+0  42491-3 0  9992
2 66548  52.0564  57.4831 0085286 111.2712 249.7408 15.29606157   843
GLOBAL-33               
1 66554U 25267A   25325.59612889  .00003575  00000+0  12516-3 0  9990
2 66554  42.0189 178.9818 0006750 273.7217  86.2848 15.30949686   165
ELECTRON KICK STAGE R/B 
1 66555U 25267B   25326.96523308  .00003327  00000+0  11488-3 0  9992
2 66555  42.0179 171.0992 0008398 283.6508  76.3394 15.31558882   379
ELECTRON R/B            
1 66556U 25267C   25325.68896391  .00330020  73273-5  18540-3 0  9993
2 66556  42.0620 178.0185 0218594 275.5638  82.0326 15.83492186   186
TJS-21                  
1 66586U 25269A   25326.02704417  .00003197  00000+0  53570-3 0  9990
2 66586  51.0366 174.7096 7517987 225.0489  41.6572  2.00992210    24
CZ-3B R/B               
1 66587U 25269B   25327.51390516  .00010320 -91384-6  49597-3 0  9990
2 66587  51.3768 174.0599 7525341 225.2938  41.2116  2.01516013    67
